[{"OBJECT_NAME":"STARLINK-3749","OBJECT_ID":"2022-041BE","EPOCH":"2026-03-09T18:59:07.725696","MEAN_MOTION":15.0882769,"ECCENTRICITY":0.00012471,"INCLINATION":53.217,"RA_OF_ASC_NODE":88.667,"ARG_OF_PERICENTER":85.6294,"MEAN_ANOMALY":274.484,"EPHEMERIS_TYPE":0,"CLASSIFICATION_TYPE":"U","NORAD_CAT_ID":52313,"ELEMENT_SET_NO":999,"REV_AT_EPOCH":21588,"BSTAR":-6.3405574e-5,"MEAN_MOTION_DOT":-1.296e-5,"MEAN_MOTION_DDOT":0},{"OBJECT_NAME":"OBJECT D","OBJECT_ID":"2025-013D","EPOCH":"2026-03-09T22:45:56.369376","MEAN_MOTION":15.10588544,"ECCENTRICITY":0.0008827,"INCLINATION":97.6457,"RA_OF_ASC_NODE":238.3603,"ARG_OF_PERICENTER":18.3993,"MEAN_ANOMALY":341.7554,"EPHEMERIS_TYPE":0,"CLASSIFICATION_TYPE":"U","NORAD_CAT_ID":62732,"ELEMENT_SET_NO":999,"REV_AT_EPOCH":6229,"BSTAR":0.00036300228,"MEAN_MOTION_DOT":5.935e-5,"MEAN_MOTION_DDOT":0}]
